[{"OBJECT_NAME":"OBJECT G","OBJECT_ID":"2024-205G","EPOCH":"2026-03-09T23:05:54.449664","MEAN_MOTION":15.09392775,"ECCENTRICITY":0.00211709,"INCLINATION":97.4199,"RA_OF_ASC_NODE":141.9686,"ARG_OF_PERICENTER":130.0324,"MEAN_ANOMALY":230.2768,"EPHEMERIS_TYPE":0,"CLASSIFICATION_TYPE":"U","NORAD_CAT_ID":61900,"ELEMENT_SET_NO":999,"REV_AT_EPOCH":7318,"BSTAR":0.00059967322,"MEAN_MOTION_DOT":9.576e-5,"MEAN_MOTION_DDOT":0},{"OBJECT_NAME":"STARLINK-33924","OBJECT_ID":"2025-112D","EPOCH":"2026-03-09T16:27:06.898464","MEAN_MOTION":15.0565016,"ECCENTRICITY":4.835e-5,"INCLINATION":97.6041,"RA_OF_ASC_NODE":121.4493,"ARG_OF_PERICENTER":90.2285,"MEAN_ANOMALY":269.8997,"EPHEMERIS_TYPE":0,"CLASSIFICATION_TYPE":"U","NORAD_CAT_ID":64149,"ELEMENT_SET_NO":999,"REV_AT_EPOCH":4330,"BSTAR":0.00025469218,"MEAN_MOTION_DOT":3.616e-5,"MEAN_MOTION_DDOT":0}]
